{
  "type": "FeatureCollection",
  "features": [
    {
      "type": "Feature",
      "properties": {
        "norad_id": 31246,
        "name": "FENGYUN 1C DEB",
        "group": "fengyun-1c-debris",
        "lat": -28.341774501980815,
        "lon": 19.14315500485621,
        "alt_km": 901.9613013821754,
        "timestamp": "2025-12-23T05:02:12.312068+00:00",
        "meta_object_name": "FENGYUN 1C DEB",
        "meta_object_id": "1999-025BMC",
        "meta_epoch": "2025-12-12T08:40:07.558176",
        "meta_mean_motion": 14.07203108,
        "meta_eccentricity": 0.01486979,
        "meta_inclination": 98.8179,
        "meta_ra_of_asc_node": 193.3588,
        "meta_arg_of_pericenter": 344.8205,
        "meta_mean_anomaly": 14.8526,
        "meta_ephemeris_type": 0,
        "meta_classification_type": "U",
        "meta_norad_cat_id": 31246,
        "meta_element_set_no": 999,
        "meta_rev_at_epoch": 61747,
        "meta_bstar": 0.003171684,
        "meta_mean_motion_dot": 5.838e-05,
        "meta_mean_motion_ddot": 0,
        "tle_line1": "1 31246U 99025BMC 25346.36119859  .00005838  00000+0  31717-2 0  9997",
        "tle_line2": "2 31246  98.8179 193.3588 0148697 344.8205  14.8526 14.07203108617475"
      },
      "geometry": {
        "type": "Point",
        "coordinates": [
          19.14315500485621,
          -28.341774501980815
        ]
      }
    },
    {
      "type": "Feature",
      "properties": {
        "norad_id": 31247,
        "name": "FENGYUN 1C DEB",
        "group": "fengyun-1c-debris",
        "lat": 25.891377349409943,
        "lon": 70.32330271842604,
        "alt_km": 896.0421255006659,
        "timestamp": "2025-12-23T05:02:12.312078+00:00",
        "meta_object_name": "FENGYUN 1C DEB",
        "meta_object_id": "1999-025BMD",
        "meta_epoch": "2025-12-19T03:38:56.942880",
        "meta_mean_motion": 14.05141398,
        "meta_eccentricity": 0.00591155,
        "meta_inclination": 99.3669,
        "meta_ra_of_asc_node": 241.5398,
        "meta_arg_of_pericenter": 45.1692,
        "meta_mean_anomaly": 112.4499,
        "meta_ephemeris_type": 0,
        "meta_classification_type": "U",
        "meta_norad_cat_id": 31247,
        "meta_element_set_no": 999,
        "meta_rev_at_epoch": 95611,
        "meta_bstar": 0.0010015357,
        "meta_mean_motion_dot": 1.595e-05,
        "meta_mean_motion_ddot": 0,
        "tle_line1": "1 31247U 99025BMD 25353.15204795  .00001595  00000+0  10015-2 0  9991",
        "tle_line2": "2 31247  99.3669 241.5398 0059115  45.1692 112.4499 14.05141398956119"
      },
      "geometry": {
        "type": "Point",
        "coordinates": [
          70.32330271842604,
          25.891377349409943
        ]
      }
    },
    {
      "type": "Feature",
      "properties": {
        "norad_id": 31248,
        "name": "FENGYUN 1C DEB",
        "group": "fengyun-1c-debris",
        "lat": -77.22290872679257,
        "lon": -171.3566601931046,
        "alt_km": 851.5775786073291,
        "timestamp": "2025-12-23T05:02:12.312088+00:00",
        "meta_object_name": "FENGYUN 1C DEB",
        "meta_object_id": "1999-025BME",
        "meta_epoch": "2025-12-18T15:54:42.813792",
        "meta_mean_motion": 13.92792265,
        "meta_eccentricity": 0.01098054,
        "meta_inclination": 99.2637,
        "meta_ra_of_asc_node": 50.1244,
        "meta_arg_of_pericenter": 295.1877,
        "meta_mean_anomaly": 220.4499,
        "meta_ephemeris_type": 0,
        "meta_classification_type": "U",
        "meta_norad_cat_id": 31248,
        "meta_element_set_no": 999,
        "meta_rev_at_epoch": 94906,
        "meta_bstar": 0.00044323631,
        "meta_mean_motion_dot": 5.57e-06,
        "meta_mean_motion_ddot": 0,
        "tle_line1": "1 31248U 99025BME 25352.66299553  .00000557  00000+0  44324-3 0  9991",
        "tle_line2": "2 31248  99.2637  50.1244 0109805 295.1877 220.4499 13.92792265949068"
      },
      "geometry": {
        "type": "Point",
        "coordinates": [
          -171.3566601931046,
          -77.22290872679257
        ]
      }
    },
    {
      "type": "Feature",
      "properties": {
        "norad_id": 31250,
        "name": "FENGYUN 1C DEB",
        "group": "fengyun-1c-debris",
        "lat": 60.13787248147254,
        "lon": 41.32141369212063,
        "alt_km": 960.1082411807247,
        "timestamp": "2025-12-23T05:02:12.312098+00:00",
        "meta_object_name": "FENGYUN 1C DEB",
        "meta_object_id": "1999-025BMG",
        "meta_epoch": "2025-12-22T01:04:44.702976",
        "meta_mean_motion": 14.0311709,
        "meta_eccentricity": 0.01329829,
        "meta_inclination": 98.3868,
        "meta_ra_of_asc_node": 205.3584,
        "meta_arg_of_pericenter": 271.6061,
        "meta_mean_anomaly": 86.9879,
        "meta_ephemeris_type": 0,
        "meta_classification_type": "U",
        "meta_norad_cat_id": 31250,
        "meta_element_set_no": 999,
        "meta_rev_at_epoch": 95648,
        "meta_bstar": 0.0010553467,
        "meta_mean_motion_dot": 1.735e-05,
        "meta_mean_motion_ddot": 0,
        "tle_line1": "1 31250U 99025BMG 25356.04496184  .00001735  00000+0  10553-2 0  9994",
        "tle_line2": "2 31250  98.3868 205.3584 0132982 271.6061  86.9879 14.03117090956485"
      },
      "geometry": {
        "type": "Point",
        "coordinates": [
          41.32141369212063,
          60.13787248147254
        ]
      }
    },
    {
      "type": "Feature",
      "properties": {
        "norad_id": 31252,
        "name": "FENGYUN 1C DEB",
        "group": "fengyun-1c-debris",
        "lat": 47.06357626854885,
        "lon": -155.1898305583274,
        "alt_km": 602.5425442007272,
        "timestamp": "2025-12-23T05:02:12.312108+00:00",
        "meta_object_name": "FENGYUN 1C DEB",
        "meta_object_id": "1999-025BMJ",
        "meta_epoch": "2025-12-17T18:22:10.909056",
        "meta_mean_motion": 14.40187577,
        "meta_eccentricity": 0.02140088,
        "meta_inclination": 98.3168,
        "meta_ra_of_asc_node": 10.4713,
        "meta_arg_of_pericenter": 157.098,
        "meta_mean_anomaly": 203.9929,
        "meta_ephemeris_type": 0,
        "meta_classification_type": "U",
        "meta_norad_cat_id": 31252,
        "meta_element_set_no": 999,
        "meta_rev_at_epoch": 97279,
        "meta_bstar": 0.00025554258,
        "meta_mean_motion_dot": 1.009e-05,
        "meta_mean_motion_ddot": 0,
        "tle_line1": "1 31252U 99025BMJ 25351.76540404  .00001009  00000+0  25554-3 0  9997",
        "tle_line2": "2 31252  98.3168  10.4713 0214008 157.0980 203.9929 14.40187577972793"
      },
      "geometry": {
        "type": "Point",
        "coordinates": [
          -155.1898305583274,
          47.06357626854885
        ]
      }
    },
    {
      "type": "Feature",
      "properties": {
        "norad_id": 31253,
        "name": "FENGYUN 1C DEB",
        "group": "fengyun-1c-debris",
        "lat": -52.297782289387456,
        "lon": 74.15976615048345,
        "alt_km": 972.2782395629902,
        "timestamp": "2025-12-23T05:02:12.312120+00:00",
        "meta_object_name": "FENGYUN 1C DEB",
        "meta_object_id": "1999-025BMK",
        "meta_epoch": "2025-12-21T10:31:09.949440",
        "meta_mean_motion": 14.03607251,
        "meta_eccentricity": 0.02906334,
        "meta_inclination": 99.0756,
        "meta_ra_of_asc_node": 60.4551,
        "meta_arg_of_pericenter": 66.7312,
        "meta_mean_anomaly": 296.4166,
        "meta_ephemeris_type": 0,
        "meta_classification_type": "U",
        "meta_norad_cat_id": 31253,
        "meta_element_set_no": 999,
        "meta_rev_at_epoch": 69120,
        "meta_bstar": 6.5782528e-05,
        "meta_mean_motion_dot": 1.04e-06,
        "meta_mean_motion_ddot": 0,
        "tle_line1": "1 31253U 99025BMK 25355.43830960  .00000104  00000+0  65783-4 0  9999",
        "tle_line2": "2 31253  99.0756  60.4551 0290633  66.7312 296.4166 14.03607251691202"
      },
      "geometry": {
        "type": "Point",
        "coordinates": [
          74.15976615048345,
          -52.297782289387456
        ]
      }
    },
    {
      "type": "Feature",
      "properties": {
        "norad_id": 31254,
        "name": "FENGYUN 1C DEB",
        "group": "fengyun-1c-debris",
        "lat": 22.16304177626105,
        "lon": -129.80279313695542,
        "alt_km": 664.5560130788626,
        "timestamp": "2025-12-23T05:02:12.312131+00:00",
        "meta_object_name": "FENGYUN 1C DEB",
        "meta_object_id": "1999-025BML",
        "meta_epoch": "2025-12-20T21:58:05.064096",
        "meta_mean_motion": 14.36381036,
        "meta_eccentricity": 0.015173,
        "meta_inclination": 98.4611,
        "meta_ra_of_asc_node": 44.4666,
        "meta_arg_of_pericenter": 177.7656,
        "meta_mean_anomaly": 1.9855,
        "meta_ephemeris_type": 0,
        "meta_classification_type": "U",
        "meta_norad_cat_id": 31254,
        "meta_element_set_no": 999,
        "meta_rev_at_epoch": 97633,
        "meta_bstar": 0.00034331,
        "meta_mean_motion_dot": 1.099e-05,
        "meta_mean_motion_ddot": 0,
        "tle_line1": "1 31254U 99025BML 25354.91533639  .00001099  00000+0  34331-3 0  9993",
        "tle_line2": "2 31254  98.4611  44.4666 0151730 177.7656   1.9855 14.36381036976333"
      },
      "geometry": {
        "type": "Point",
        "coordinates": [
          -129.80279313695542,
          22.16304177626105
        ]
      }
    }
  ]
}